NORAD_CAT_ID,OBJECT_NAME,OBJECT_TYPE,EPOCH,MEAN_MOTION,ECCENTRICITY,INCLINATION,RA_OF_ASC_NODE,ARG_OF_PERICENTER,MEAN_ANOMALY,BSTAR,MEAN_MOTION_DOT,MEAN_MOTION_DDOT,TLE_LINE0,TLE_LINE1,TLE_LINE2,SEMIMAJOR_AXIS,PERIOD,APOGEE,PERIGEE,DECAYED
53917.0,STARLINK-5036,PAYLOAD,2022-12-16 22:00:00,15.24894975,0.0001377,53.2175,206.2243,55.7561,337.6792,-0.049629,-0.01153885,0.0,0 STARLINK-5036,1 53917U 22119AH  22350.91667824 -.01153885  00000-0 -49629-1 0  9999,2 53917  53.2175 206.2243 0001377  55.7561 337.6792 15.24894975  1301,6869.238,94.433,492.049,490.157,0.0
53917.0,STARLINK-5036,PAYLOAD,2022-12-17 06:00:00,15.24079664,0.0001374,53.2174,204.6906,54.8895,8.9342,-0.050733,-0.01151199,0.0,0 STARLINK-5036,1 53917U 22119AH  22351.25001157 -.01151199  00000-0 -50733-1 0  9992,2 53917  53.2174 204.6906 0001374  54.8895   8.9342 15.24079664 13497,6871.687,94.483,494.497,492.608,0.0
53917.0,STARLINK-5036,PAYLOAD,2022-12-17 14:00:01,15.23128226,0.0001284,53.2167,203.1592,73.5884,19.7731,-0.042626,-0.00942898,0.0,0 STARLINK-5036,1 53917U 22119AH  22351.58335648 -.00942898  00000-0 -42626-1 0  9998,2 53917  53.2167 203.1592 0001284  73.5884  19.7731 15.23128226  1307,6874.549,94.542,497.296,495.531,0.0
53917.0,STARLINK-5036,PAYLOAD,2022-12-17 22:00:00,15.22426346,0.0001379,53.2168,201.6319,96.4103,25.2649,-0.051409,-0.01113361,0.0,0 STARLINK-5036,1 53917U 22119AH  22351.91667824 -.01113361  00000-0 -51409-1 0  9994,2 53917  53.2168 201.6319 0001379  96.4103  25.2649 15.22426346  1304,6876.6619999999975,94.586,499.475,497.578,0.0
53917.0,STARLINK-5036,PAYLOAD,2022-12-18 06:00:02,15.21638016,0.0001364,53.2174,200.1034,99.5869,49.5949,-0.054499,-0.01149994,0.0,0 STARLINK-5036,1 53917U 22119AH  22352.25002315 -.01149994  00000-0 -54499-1 0  9993,2 53917  53.2174 200.1034 0001364  99.5869  49.5949 15.21638016 13646,6879.036,94.635,501.84,499.963,0.0
53917.0,STARLINK-5036,PAYLOAD,2022-12-18 14:00:01,15.20824168,0.0001456,53.2177,198.5776,104.6423,70.952,-0.055773,-0.01149048,0.0,0 STARLINK-5036,1 53917U 22119AH  22352.58334491 -.01149048  00000-0 -55773-1 0  9998,2 53917  53.2177 198.5776 0001456 104.6423  70.9520 15.20824168  1305,6881.49,94.686,504.357,502.353,0.0
53917.0,STARLINK-5036,PAYLOAD,2022-12-18 22:00:00,15.20009728,0.0001435,53.2176,197.056,92.8475,108.2441,-0.057093,-0.01148484,0.0,0 STARLINK-5036,1 53917U 22119AH  22352.91667824 -.01148484  00000-0 -57093-1 0  9994,2 53917  53.2176 197.0560 0001435  92.8475 108.2441 15.20009728  1305,6883.948,94.736,506.801,504.825,0.0
53917.0,STARLINK-5036,PAYLOAD,2022-12-19 04:00:00,15.19399199,0.0001346,53.2173,195.9141,75.8349,53.739,-0.058088,-0.01147853,0.0,0 STARLINK-5036,1 53917U 22119AH  22353.16667824 -.01147853  00000-0 -58088-1 0  9996,2 53917  53.2173 195.9141 0001346  75.8349  53.7390 15.19399199 13780,6885.792,94.774,508.584,506.73,0.0
53917.0,STARLINK-5036,PAYLOAD,2022-12-19 10:00:00,15.18787303,0.0001174,53.2174,194.7727,80.4972,337.0098,-0.059018,-0.01145755,0.0,0 STARLINK-5036,1 53917U 22119AH  22353.41667824 -.01145755  00000-0 -59018-1 0  9997,2 53917  53.2174 194.7727 0001174  80.4972 337.0098 15.18787303  1306,6887.642,94.812,510.315,508.698,0.0
53917.0,STARLINK-5036,PAYLOAD,2022-12-19 22:00:00,15.17567862,0.0001357,53.2177,192.4976,85.1931,186.5252,-0.061211,-0.01146981,0.0,0 STARLINK-5036,1 53917U 22119AH  22353.91667824 -.01146981  00000-0 -61211-1 0  9992,2 53917  53.2177 192.4976 0001357  85.1931 186.5252 15.17567862 13891,6891.331,94.889,514.131,512.261,0.0
53917.0,STARLINK-5036,PAYLOAD,2022-12-20 14:00:01,15.15943773,0.0001354,53.2163,189.4665,102.1996,211.7128,-0.064386,-0.01151069,0.0,0 STARLINK-5036,1 53917U 22119AH  22354.58334491 -.01151069  00000-0 -64386-1 0  9996,2 53917  53.2163 189.4665 0001354 102.1996 211.7128 15.15943773  1308,6896.252,94.99,519.0509999999998,517.183,0.0
53917.0,STARLINK-5036,PAYLOAD,2022-12-20 22:00:01,15.1513351,0.0001339,53.2166,187.9564,111.003,222.601,-0.066256,-0.01156901,0.0,0 STARLINK-5036,1 53917U 22119AH  22354.91668981 -.01156901  00000-0 -66256-1 0  9995,2 53917  53.2166 187.9564 0001339 111.0030 222.6010 15.15133510 14050,6898.71,95.041,521.499,519.6519999999998,0.0
53917.0,STARLINK-5036,PAYLOAD,2022-12-21 14:00:01,15.13498798,0.0001217,53.2177,184.9364,98.8661,271.0072,-0.068687,-0.01145881,0.0,0 STARLINK-5036,1 53917U 22119AH  22355.58334491 -.01145881  00000-0 -68687-1 0  9990,2 53917  53.2177 184.9364 0001217  98.8661 271.0072 15.13498798  1304,6903.677,95.144,526.382,524.702,0.0
53917.0,STARLINK-5036,PAYLOAD,2022-12-21 22:00:00,15.12689922,0.0001315999999999,53.2166,183.432,105.6273,280.9402,-0.070801,-0.01153869,0.0,0 STARLINK-5036,1 53917U 22119AH  22355.91667824 -.01153869  00000-0 -70801-1 0  9992,2 53917  53.2166 183.4320 0001316 105.6273 280.9402 15.12689922 14203,6906.138000000001,95.195,528.9119999999998,527.094,0.0
53917.0,STARLINK-5036,PAYLOAD,2022-12-22 14:00:01,15.11057377,0.0001244,53.2175,180.4235,89.956,327.0755,-0.073549,-0.01145762,0.0,0 STARLINK-5036,1 53917U 22119AH  22356.58334491 -.01145762  00000-0 -73549-1 0  9992,2 53917  53.2175 180.4235 0001244  89.9560 327.0755 15.11057377  1301,6911.111,95.298,533.836,532.116,0.0
53917.0,STARLINK-5036,PAYLOAD,2022-12-22 22:00:00,15.10244641,0.0001203,53.2175,178.9246,81.7216,349.0729,-0.075559,-0.01150365,0.0,0 STARLINK-5036,1 53917U 22119AH  22356.91667824 -.01150365  00000-0 -75559-1 0  9996,2 53917  53.2175 178.9246 0001203  81.7216 349.0729 15.10244641 14353,6913.59,95.349,536.2869999999998,534.624,0.0
53917.0,STARLINK-5036,PAYLOAD,2022-12-23 00:00:00,15.10008541,0.0001256,53.2173,178.5496,83.2602,80.8296,-0.070863,-0.01077587,0.0,0 STARLINK-5036,1 53917U 22119AH  22357.00001157 -.01077587  00000-0 -70863-1 0  9995,2 53917  53.2173 178.5496 0001256  83.2602  80.8296 15.10008541  1305,6914.311,95.364,537.044,535.307,0.0
53917.0,STARLINK-5036,PAYLOAD,2022-12-23 06:00:00,15.09299115,0.0001166,53.2175,177.4243,107.0028,336.594,-0.037094,-0.00559881,0.0,0 STARLINK-5036,1 53917U 22119AH  22357.25001157 -.00559881  00000-0 -37094-1 0  9992,2 53917  53.2175 177.4243 0001166 107.0028 336.5940 15.09299115 14401,6916.477,95.409,539.149,537.536,0.0
53917.0,STARLINK-5036,PAYLOAD,2022-12-23 14:00:01,15.09034684,0.0001428,53.2149,175.9268,89.3729,6.016,-0.017869,-0.00275433,0.0,0 STARLINK-5036,1 53917U 22119AH  22357.58334491 -.00275433  00000-0 -17869-1 0  9994,2 53917  53.2149 175.9268 0001428  89.3729   6.0160 15.09034684 14459,6917.285,95.425,540.138,538.163,0.0
53917.0,STARLINK-5036,PAYLOAD,2022-12-23 22:00:01,15.08821217,0.0001214,53.2116,174.4308,86.4355,20.6197,0.0028936,0.00046041,0.0,0 STARLINK-5036,1 53917U 22119AH  22357.91668981  .00046041  00000-0  28936-2 0  9992,2 53917  53.2116 174.4308 0001214  86.4355  20.6197 15.08821217  1305,6917.938,95.439,540.643,538.9630000000002,0.0
53917.0,STARLINK-5036,PAYLOAD,2022-12-24 06:00:00,15.08844533,0.0001174,53.2135,172.9326,95.0099,23.5781,5.2626e-05,5.5e-06,0.0,0 STARLINK-5036,1 53917U 22119AH  22358.25001157  .00000550  00000-0  52626-4 0  9996,2 53917  53.2135 172.9326 0001174  95.0099  23.5781 15.08844533 14553,6917.8669999999975,95.437,540.544,538.919,0.0
53917.0,STARLINK-5036,PAYLOAD,2022-12-24 14:00:01,15.08863692,0.0001256,53.2137,171.4362,95.6464,34.5365,-0.0012584,-0.00020272,0.0,0 STARLINK-5036,1 53917U 22119AH  22358.58334491 -.00020272  00000-0 -12584-2 0  9994,2 53917  53.2137 171.4362 0001256  95.6464  34.5365 15.08863692  1308,6917.808000000001,95.436,540.5419999999998,538.804,0.0
53917.0,STARLINK-5036,PAYLOAD,2022-12-24 22:00:00,15.08838755,0.0001256,53.2139,169.9412,83.6115,58.1936,0.0015273,0.00024102,0.0,0 STARLINK-5036,1 53917U 22119AH  22358.91667824  .00024102  00000-0  15273-2 0  9992,2 53917  53.2139 169.9412 0001256  83.6115  58.1936 15.08838755  1306,6917.884,95.438,540.618,538.88,0.0
53917.0,STARLINK-5036,PAYLOAD,2022-12-25 14:00:01,15.08848479,0.000136,53.2147,166.9469,93.4711,71.5264,-0.0014625,-0.00023493,0.0,0 STARLINK-5036,1 53917U 22119AH  22359.58334491 -.00023493  00000-0 -14625-2 0  9991,2 53917  53.2147 166.9469 0001360  93.4711  71.5264 15.08848479 14751,6917.854,95.437,540.66,538.779,0.0
53917.0,STARLINK-5036,PAYLOAD,2022-12-26 00:00:00,15.08839008,0.00013,53.2145,165.0775,83.7014,185.7889,0.00046241,7.079e-05,0.0,0 STARLINK-5036,1 53917U 22119AH  22360.00001157  .00007079  00000-0  46241-3 0  9990,2 53917  53.2145 165.0775 0001300  83.7014 185.7889 15.08839008  1307,6917.8830000000025,95.438,540.648,538.849,0.0
53917.0,STARLINK-5036,PAYLOAD,2022-12-26 06:00:00,15.08832155,0.0001255,53.215,163.9538,92.9095,95.2841,0.0011369,0.00017848,0.0,0 STARLINK-5036,1 53917U 22119AH  22360.25001157  .00017848  00000-0  11369-2 0  9994,2 53917  53.2150 163.9538 0001255  92.9095  95.2841 15.08832155 14850,6917.904,95.438,540.638,538.901,0.0
53917.0,STARLINK-5036,PAYLOAD,2022-12-26 14:00:01,15.08862245,0.0001313,53.2153,162.458,92.9117,106.8714,-0.0014197,-0.00022825,0.0,0 STARLINK-5036,1 53917U 22119AH  22360.58334491 -.00022825  00000-0 -14197-2 0  9995,2 53917  53.2153 162.4580 0001313  92.9117 106.8714 15.08862245  1301,6917.812,95.436,540.586,538.769,0.0
53917.0,STARLINK-5036,PAYLOAD,2022-12-27 00:00:00,15.08861371,0.0001256,53.2149,160.5882,83.4733,220.8251,8.7916e-05,1.112e-05,0.0,0 STARLINK-5036,1 53917U 22119AH  22361.00001157  .00001112  00000-0  87916-4 0  9998,2 53917  53.2149 160.5882 0001256  83.4733 220.8251 15.08861371  1307,6917.815,95.436,540.549,538.811,0.0
53917.0,STARLINK-5036,PAYLOAD,2022-12-27 11:22:29,15.08849603,0.0001179,53.2156,158.4595,91.9587,268.154,0.00012657,1.728e-05,0.0,0 STARLINK-5036,1 53917U 22119AH  22361.47394955  .00001728  00000-0  12657-3 0  9992,2 53917  53.2156 158.4595 0001179  91.9587 268.1540 15.08849603 15469,6917.851,95.437,540.5319999999998,538.9,0.0
